[{"OBJECT_NAME":"STARLINK-35370","OBJECT_ID":"2025-235AD","EPOCH":"2026-03-09T22:12:15.417216","MEAN_MOTION":15.30208642,"ECCENTRICITY":0.00010404,"INCLINATION":53.1579,"RA_OF_ASC_NODE":244.4481,"ARG_OF_PERICENTER":81.4609,"MEAN_ANOMALY":278.651,"EPHEMERIS_TYPE":0,"CLASSIFICATION_TYPE":"U","NORAD_CAT_ID":66085,"ELEMENT_SET_NO":999,"REV_AT_EPOCH":2292,"BSTAR":0.0012563086,"MEAN_MOTION_DOT":0.00037045,"MEAN_MOTION_DDOT":0},{"OBJECT_NAME":"SL-19 R\/B","OBJECT_ID":"2011-005B","EPOCH":"2026-03-09T21:50:35.538720","MEAN_MOTION":15.57556472,"ECCENTRICITY":0.01260184,"INCLINATION":99.3438,"RA_OF_ASC_NODE":178.5978,"ARG_OF_PERICENTER":174.8144,"MEAN_ANOMALY":185.4445,"EPHEMERIS_TYPE":0,"CLASSIFICATION_TYPE":"U","NORAD_CAT_ID":37363,"ELEMENT_SET_NO":999,"REV_AT_EPOCH":82354,"BSTAR":0.00054776137,"MEAN_MOTION_DOT":0.00058791,"MEAN_MOTION_DDOT":0}]
